{
    "links": {
        "self": "http://www.neowsapp.com/rest/v1/neo/3608668?api_key=iIulBulltgU6a56xZRHN4H3l9WmuAYTsLGpBGhQ2"
    },
    "id": "3608668",
    "neo_reference_id": "3608668",
    "name": "(2012 RU16)",
    "designation": "2012 RU16",
    "nasa_jpl_url": "http://ssd.jpl.nasa.gov/sbdb.cgi?sstr=3608668",
    "absolute_magnitude_h": 25.5,
    "estimated_diameter": {
        "kilometers": {
            "estimated_diameter_min": 0.0211132445,
            "estimated_diameter_max": 0.0472106499
        },
        "meters": {
            "estimated_diameter_min": 21.113244479,
            "estimated_diameter_max": 47.2106498806
        },
        "miles": {
            "estimated_diameter_min": 0.0131191578,
            "estimated_diameter_max": 0.0293353287
        },
        "feet": {
            "estimated_diameter_min": 69.2691770164,
            "estimated_diameter_max": 154.8905885541
        }
    },
    "is_potentially_hazardous_asteroid": false,
    "close_approach_data": [
        {
            "close_approach_date": "2012-09-05",
            "close_approach_date_full": "2012-Sep-05 16:15",
            "epoch_date_close_approach": 1346861700000,
            "relative_velocity": {
                "kilometers_per_second": "11.4104764717",
                "kilometers_per_hour": "41077.7152982626",
                "miles_per_hour": "25524.0948196343"
            },
            "miss_distance": {
                "astronomical": "0.0342081387",
                "lunar": "13.3069659543",
                "kilometers": "5117464.686184569",
                "miles": "3179845.1046182922"
            },
            "orbiting_body": "Earth"
        },
        {
            "close_approach_date": "2038-01-01",
            "close_approach_date_full": "2038-Jan-01 23:58",
            "epoch_date_close_approach": 2146003080000,
            "relative_velocity": {
                "kilometers_per_second": "5.9996395123",
                "kilometers_per_hour": "21598.7022442018",
                "miles_per_hour": "13420.5936250153"
            },
            "miss_distance": {
                "astronomical": "1.8922469049",
                "lunar": "736.0840460061",
                "kilometers": "283076106.487132563",
                "miles": "175895336.1959848494"
            },
            "orbiting_body": "Juptr"
        }
    ],
    "orbital_data": {
        "orbit_id": "11",
        "orbit_determination_date": "2017-04-06 08:49:00",
        "first_observation_date": "2012-09-15",
        "last_observation_date": "2012-10-10",
        "data_arc_in_days": 25,
        "observations_used": 56,
        "orbit_uncertainty": "8",
        "minimum_orbit_intersection": ".00310564",
        "jupiter_tisserand_invariant": "3.184",
        "epoch_osculation": "2456191.5",
        "eccentricity": ".6128479756476165",
        "semi_major_axis": "2.487639093123033",
        "inclination": ".4044987706406124",
        "ascending_node_longitude": "310.9123704475633",
        "orbital_period": "1433.109868299893",
        "perihelion_distance": ".9630945107607098",
        "perihelion_argument": "357.4898756860159",
        "aphelion_distance": "4.012183675485357",
        "perihelion_time": "2456149.877263186327",
        "mean_anomaly": "10.45571284126186",
        "mean_motion": ".2512019545487257",
        "equinox": "J2000",
        "orbit_class": {
            "orbit_class_type": "APO",
            "orbit_class_description": "Near-Earth asteroid orbits which cross the Earth’s orbit similar to that of 1862 Apollo",
            "orbit_class_range": "a (semi-major axis) > 1.0 AU; q (perihelion) < 1.017 AU"
        }
    },
    "is_sentry_object": false
}